ONEWEB-0136             
1 47282U 20100AA  26015.03110188 -.00000298  00000+0 -86235-3 0  9999
2 47282  87.8929  21.0567 0001356  91.4678 268.6606 13.12442470244573
ONEWEB-0137             
1 47283U 20100AB  26015.06497184  .00000221  00000+0  57819-3 0  9997
2 47283  87.8928  21.0553 0001855  91.3970 268.7371 13.12444906244482
ONEWEB-0138             
1 47284U 20100AC  26014.96671126 -.00000325  00000+0 -93895-3 0  9997
2 47284  87.8932  21.0840 0001554  91.4811 268.6495 13.12444390244559
ONEWEB-0139             
1 47285U 20100AD  26015.00752147  .00000377  00000+0  10131-2 0  9993
2 47285  87.8925  21.0646 0001739  90.3095 269.8233 13.12442002244633
ONEWEB-0140             
1 47286U 20100AE  26015.03787313 -.00000397  00000+0 -11391-2 0  9993
2 47286  87.8928  21.0464 0001631  89.9347 270.1968 13.12445063244607
ONEWEB-0141             
1 47287U 20100AF  26014.93100192  .00000358  00000+0  95846-3 0  9999
2 47287  87.8924  21.0751 0001995  95.6250 264.5106 13.12440857244576
ONEWEB-0142             
1 47288U 20100AG  26015.07189265  .00000322  00000+0  85900-3 0  9995
2 47288  87.8926  21.0711 0001789 102.8252 257.3077 13.12444849244582
ONEWEB-0143             
1 47289U 20100AH  26014.92946218  .00000442  00000+0  11939-2 0  9991
2 47289  87.8928  21.0952 0001769  89.6572 270.4759 13.12441656244549
